{
"type": "FeatureCollection",
"name": "metro",
"crs": { "type": "name", "properties": { "name": "urn:ogc:def:crs:OGC:1.3:CRS84" } },
"features": [
{ "type": "Feature", "properties": { "element": "way", "id": 226572943, "name": "Đường sắt đô thị số 1 Thành phố Hồ Chí Minh (Phân đoạn Bến Thành - Suối Tiên)", "name:en": "HCMC Metro Line 1 (Ben Thanh - Suoi Tien Section)", "railway": "subway", "ref": "L1" }, "geometry": { "type": "LineString", "coordinates": [ [ 106.7116315, 10.7854936 ], [ 106.7121073, 10.786029 ], [ 106.7123217, 10.7863117 ], [ 106.7124846, 10.7865677 ], [ 106.7125378, 10.7866819 ], [ 106.7126549, 10.7869333 ], [ 106.7127367, 10.7871545 ], [ 106.7128035, 10.787402 ], [ 106.71287, 10.7876822 ], [ 106.713309, 10.7900218 ], [ 106.7133628, 10.7903428 ], [ 106.7133987, 10.7906789 ], [ 106.7134129, 10.7910003 ], [ 106.7134348, 10.7916329 ], [ 106.713468, 10.7927489 ], [ 106.713495, 10.793208 ], [ 106.713552, 10.7935913 ], [ 106.7136666, 10.7939816 ], [ 106.713795, 10.7943193 ], [ 106.7139904, 10.7946582 ], [ 106.7142291, 10.7949954 ], [ 106.7146351, 10.7954005 ], [ 106.7150275, 10.7957098 ], [ 106.7154943, 10.7960829 ], [ 106.7159541, 10.7964496 ], [ 106.7163491, 10.7967476 ], [ 106.7168451, 10.797126 ], [ 106.7172464, 10.7974339 ], [ 106.7175445, 10.7976282 ], [ 106.717741, 10.7977262 ], [ 106.7179364, 10.7978058 ], [ 106.7181323, 10.797868 ], [ 106.718346, 10.7979246 ], [ 106.7197805, 10.7981214 ], [ 106.7207154, 10.7982471 ], [ 106.7211139, 10.7983005 ], [ 106.7214636, 10.798348 ], [ 106.7217041, 10.7983904 ], [ 106.7220214, 10.7984463 ], [ 106.7233192, 10.7986171 ], [ 106.7238469, 10.7986866 ], [ 106.7242769, 10.7987473 ], [ 106.7243443, 10.7987568 ], [ 106.7247763, 10.7988451 ], [ 106.7249916, 10.7988845 ], [ 106.725318, 10.7989442 ], [ 106.7302263, 10.7998613 ], [ 106.7326965, 10.8003307 ], [ 106.7336461, 10.8005113 ], [ 106.7342689, 10.8006298 ], [ 106.7371744, 10.8011719 ], [ 106.7407098, 10.8018418 ], [ 106.7416085, 10.8020864 ], [ 106.7422332, 10.8021999 ], [ 106.7428418, 10.8023104 ], [ 106.7436313, 10.8024575 ], [ 106.7439022, 10.8025033 ], [ 106.7457001, 10.8028319 ], [ 106.74671, 10.803032 ], [ 106.7472978, 10.8031427 ], [ 106.74833, 10.8033323 ], [ 106.7487174, 10.8034278 ], [ 106.7492012, 10.8035749 ], [ 106.74956, 10.8037191 ], [ 106.7501187, 10.8039528 ], [ 106.7504084, 10.8040811 ], [ 106.7509149, 10.804306 ], [ 106.7511774, 10.8044301 ], [ 106.7513752, 10.8045426 ], [ 106.7516462, 10.8047148 ], [ 106.7518495, 10.8048588 ], [ 106.7521049, 10.8050516 ], [ 106.7523719, 10.8052921 ], [ 106.7530183, 10.8060008 ], [ 106.7532524, 10.8062425 ], [ 106.7535269, 10.8064969 ], [ 106.7540041, 10.8068597 ], [ 106.7541809, 10.807006 ], [ 106.7543334, 10.8071486 ], [ 106.7544768, 10.8073126 ], [ 106.7546203, 10.8075155 ], [ 106.7548494, 10.8078769 ], [ 106.755247, 10.8085541 ], [ 106.7554306, 10.808871 ], [ 106.7555532, 10.8091159 ], [ 106.7556616, 10.8093498 ], [ 106.7558023, 10.8096753 ], [ 106.7559401, 10.8100388 ], [ 106.756046, 10.8103897 ], [ 106.7561302, 10.8107456 ], [ 106.756231, 10.8112669 ], [ 106.7568369, 10.8145027 ], [ 106.7575977, 10.8187126 ], [ 106.7577177, 10.8194995 ], [ 106.7577781, 10.8198061 ], [ 106.7579917, 10.8207793 ], [ 106.7581217, 10.8212906 ], [ 106.7581599, 10.8214282 ], [ 106.7583319, 10.8220483 ], [ 106.7585159, 10.8226083 ], [ 106.758709, 10.8231338 ], [ 106.7588885, 10.8235972 ], [ 106.7590726, 10.8240199 ], [ 106.7593225, 10.8245436 ], [ 106.7595722, 10.8250342 ], [ 106.7598532, 10.8255495 ], [ 106.7604862, 10.8266623 ], [ 106.7635847, 10.8321408 ], [ 106.7638872, 10.8326791 ], [ 106.7641823, 10.8332041 ], [ 106.7655669, 10.8356524 ], [ 106.7695677, 10.8427553 ], [ 106.7713372, 10.8458889 ], [ 106.7716333, 10.8464116 ], [ 106.7719468, 10.8469651 ], [ 106.7723054, 10.8475867 ], [ 106.7724374, 10.8478053 ], [ 106.772662, 10.8481543 ], [ 106.7731947, 10.8488836 ], [ 106.7734626, 10.8491956 ], [ 106.7736891, 10.8494494 ], [ 106.7740444, 10.8498328 ], [ 106.7743481, 10.8501254 ], [ 106.7747347, 10.85048 ], [ 106.7751225, 10.8507989 ], [ 106.775548, 10.8511216 ], [ 106.7762434, 10.851584 ], [ 106.7766995, 10.8518647 ], [ 106.7811837, 10.8545301 ], [ 106.7863179, 10.8575455 ], [ 106.7883825, 10.858759 ], [ 106.7888225, 10.8590126 ], [ 106.7894309, 10.8593632 ], [ 106.7937055, 10.8618623 ], [ 106.7970904, 10.8638953 ], [ 106.8007582, 10.8660601 ], [ 106.801193, 10.8663195 ], [ 106.8018036, 10.8666838 ], [ 106.8024562, 10.8670789 ], [ 106.8030159, 10.8674445 ], [ 106.8035609, 10.8678502 ], [ 106.8042452, 10.8684056 ], [ 106.8049181, 10.8689979 ], [ 106.8055296, 10.8696096 ], [ 106.8060998, 10.8702622 ], [ 106.8067377, 10.8710564 ], [ 106.8074136, 10.8719836 ], [ 106.8099432, 10.8754446 ], [ 106.8101458, 10.8756859 ], [ 106.8103794, 10.8759153 ], [ 106.8107203, 10.8761569 ], [ 106.8110464, 10.8763293 ], [ 106.8115868, 10.8765846 ], [ 106.8118773, 10.8767449 ], [ 106.8121038, 10.8768956 ], [ 106.8123176, 10.8770878 ], [ 106.8125162, 10.8773039 ], [ 106.8132608, 10.878354 ], [ 106.8135211, 10.8787843 ], [ 106.8137008, 10.8790977 ], [ 106.8140678, 10.8796111 ] ] } },
{ "type": "Feature", "properties": { "element": "way", "id": 469364067, "name": "Đường sắt đô thị số 1 Thành phố Hồ Chí Minh (Phân đoạn Bến Thành - Suối Tiên)", "name:en": "HCMC Metro Line 1 (Ben Thanh - Suoi Tien Section)", "railway": "subway", "ref": "L1" }, "geometry": { "type": "LineString", "coordinates": [ [ 106.81417, 10.8795689 ], [ 106.8137652, 10.8790253 ], [ 106.8135801, 10.8787382 ], [ 106.8125497, 10.8772792 ], [ 106.812346, 10.87705 ], [ 106.812131, 10.8768629 ], [ 106.8118982, 10.8767006 ], [ 106.8116066, 10.8765415 ], [ 106.8110548, 10.8762809 ], [ 106.8107461, 10.8761198 ], [ 106.8104009, 10.8758774 ], [ 106.8101739, 10.8756519 ], [ 106.809979, 10.875419 ], [ 106.807445, 10.8719564 ], [ 106.8067666, 10.8710332 ], [ 106.8061296, 10.8702394 ], [ 106.805554, 10.8695873 ], [ 106.8049423, 10.8689706 ], [ 106.8042657, 10.8683735 ], [ 106.80358, 10.8678188 ], [ 106.8030351, 10.8674148 ], [ 106.8024776, 10.867048 ], [ 106.8018249, 10.86665 ], [ 106.8012088, 10.8662864 ], [ 106.8007775, 10.8660319 ], [ 106.7971053, 10.8638593 ], [ 106.7943059, 10.8621765 ], [ 106.793723, 10.8618273 ], [ 106.7894512, 10.8593336 ], [ 106.7888389, 10.8589744 ], [ 106.7884147, 10.8587256 ], [ 106.7863436, 10.857504 ], [ 106.7812104, 10.8544906 ], [ 106.7767231, 10.85183 ], [ 106.7762696, 10.8515538 ], [ 106.7759215, 10.8513316 ], [ 106.7755691, 10.8510893 ], [ 106.7751413, 10.8507644 ], [ 106.7747606, 10.8504534 ], [ 106.7743712, 10.8500968 ], [ 106.7740738, 10.8498107 ], [ 106.7737173, 10.849427 ], [ 106.7734897, 10.8491714 ], [ 106.7732226, 10.8488644 ], [ 106.7729692, 10.8485224 ], [ 106.7726893, 10.8481335 ], [ 106.772464, 10.8477893 ], [ 106.7723327, 10.8475732 ], [ 106.7719723, 10.8469481 ], [ 106.7716657, 10.846403 ], [ 106.7713683, 10.8458744 ], [ 106.7696011, 10.8427366 ], [ 106.7670491, 10.838196 ], [ 106.7656031, 10.8356418 ], [ 106.7642184, 10.8331865 ], [ 106.7639195, 10.8326599 ], [ 106.7636143, 10.8321222 ], [ 106.7620379, 10.8293374 ], [ 106.7605232, 10.8266412 ], [ 106.7598903, 10.8255312 ], [ 106.7596082, 10.8250159 ], [ 106.7593625, 10.8245332 ], [ 106.7591082, 10.8240032 ], [ 106.7589301, 10.8235869 ], [ 106.7587466, 10.8231264 ], [ 106.7585537, 10.8225966 ], [ 106.7583675, 10.8220339 ], [ 106.7581973, 10.821417 ], [ 106.7581858, 10.8213752 ], [ 106.7580278, 10.8207698 ], [ 106.7578108, 10.8197957 ], [ 106.7577516, 10.8194932 ], [ 106.7576316, 10.8187039 ], [ 106.7568738, 10.8145022 ], [ 106.7562697, 10.8112565 ], [ 106.7561686, 10.8107412 ], [ 106.7560824, 10.8103819 ], [ 106.7559742, 10.810023 ], [ 106.7558375, 10.8096652 ], [ 106.7556941, 10.8093371 ], [ 106.7555866, 10.8090999 ], [ 106.7554655, 10.8088568 ], [ 106.7552804, 10.8085376 ], [ 106.7548786, 10.8078602 ], [ 106.7546484, 10.8074971 ], [ 106.7544991, 10.8072903 ], [ 106.7543486, 10.8071224 ], [ 106.7542019, 10.8069807 ], [ 106.7540271, 10.8068341 ], [ 106.7535473, 10.8064669 ], [ 106.7532743, 10.8062188 ], [ 106.7530497, 10.8059806 ], [ 106.7523994, 10.8052684 ], [ 106.7521278, 10.8050255 ], [ 106.7518692, 10.8048303 ], [ 106.7516692, 10.80469 ], [ 106.7513997, 10.8045197 ], [ 106.7512175, 10.8044141 ], [ 106.7509344, 10.8042783 ], [ 106.750429, 10.8040545 ], [ 106.7501441, 10.8039278 ], [ 106.7495809, 10.8036933 ], [ 106.749211, 10.8035468 ], [ 106.7487458, 10.8034004 ], [ 106.7483297, 10.8032972 ], [ 106.7473166, 10.8031081 ], [ 106.7467963, 10.8030104 ], [ 106.7467274, 10.8029975 ], [ 106.7464323, 10.802939 ], [ 106.746159, 10.8028686 ], [ 106.7457288, 10.8027557 ], [ 106.7454582, 10.8026941 ], [ 106.7450316, 10.8026036 ], [ 106.7437532, 10.8023733 ], [ 106.7436741, 10.8023569 ], [ 106.74319, 10.8022623 ], [ 106.7428672, 10.8021992 ], [ 106.7422533, 10.8020845 ], [ 106.7371941, 10.8011389 ], [ 106.7342751, 10.8005902 ], [ 106.7336535, 10.8004707 ], [ 106.7327012, 10.8002876 ], [ 106.7302264, 10.7998192 ], [ 106.7253249, 10.7988996 ], [ 106.7248025, 10.7988123 ], [ 106.7243399, 10.798726 ], [ 106.7238552, 10.798652 ], [ 106.7233239, 10.7985812 ], [ 106.7220106, 10.798406 ], [ 106.7217306, 10.7983606 ], [ 106.7213463, 10.7982983 ], [ 106.720976, 10.7982471 ], [ 106.720385, 10.7981654 ], [ 106.7197848, 10.7980929 ], [ 106.7183512, 10.7978934 ], [ 106.7181353, 10.7978381 ], [ 106.7179471, 10.7977768 ], [ 106.7177557, 10.7976955 ], [ 106.717575, 10.7976038 ], [ 106.7172983, 10.7974282 ], [ 106.7168783, 10.7970938 ], [ 106.7163395, 10.7966836 ], [ 106.7159864, 10.7964116 ], [ 106.7155211, 10.7960451 ], [ 106.7150528, 10.7956763 ], [ 106.7146583, 10.7953748 ], [ 106.7142626, 10.7949787 ], [ 106.7140346, 10.7946537 ], [ 106.71383, 10.7943149 ], [ 106.7137005, 10.7939537 ], [ 106.7135896, 10.7935741 ], [ 106.7135364, 10.7931699 ], [ 106.7134745, 10.7916241 ], [ 106.7134533, 10.7910022 ], [ 106.7134364, 10.7906721 ], [ 106.7134014, 10.7903309 ], [ 106.7133477, 10.7900155 ], [ 106.7129019, 10.7876725 ], [ 106.7128111, 10.7872947 ], [ 106.7126956, 10.7869303 ], [ 106.7125127, 10.7865526 ], [ 106.7123482, 10.7862939 ], [ 106.7121323, 10.7860093 ], [ 106.7116613, 10.7854683 ] ] } },
{ "type": "Feature", "properties": { "element": "way", "id": 875447318, "name": null, "name:en": null, "railway": "subway", "ref": null }, "geometry": { "type": "LineString", "coordinates": [ [ 106.820193, 10.8792087 ], [ 106.8203052, 10.8790453 ], [ 106.8203977, 10.8789504 ], [ 106.8204843, 10.8788883 ], [ 106.8205649, 10.8788377 ], [ 106.8206518, 10.8787843 ], [ 106.8207341, 10.8787468 ], [ 106.8208368, 10.8787105 ], [ 106.8209369, 10.8786853 ], [ 106.8210393, 10.8786723 ], [ 106.8212629, 10.8786521 ], [ 106.8215894, 10.8786192 ], [ 106.822293, 10.8785472 ] ] } },
{ "type": "Feature", "properties": { "element": "way", "id": 875447319, "name": null, "name:en": null, "railway": "subway", "ref": null }, "geometry": { "type": "LineString", "coordinates": [ [ 106.8197221, 10.8800657 ], [ 106.820193, 10.8792087 ] ] } },
{ "type": "Feature", "properties": { "element": "way", "id": 875447320, "name": null, "name:en": null, "railway": "subway", "ref": null }, "geometry": { "type": "LineString", "coordinates": [ [ 106.8193586, 10.8804967 ], [ 106.819607, 10.8801895 ] ] } },
{ "type": "Feature", "properties": { "element": "way", "id": 875447325, "name": null, "name:en": null, "railway": "subway", "ref": null }, "geometry": { "type": "LineString", "coordinates": [ [ 106.8216038, 10.8764989 ], [ 106.8211535, 10.877466 ], [ 106.8209338, 10.8778798 ], [ 106.8206028, 10.8783228 ], [ 106.8204585, 10.8785757 ], [ 106.8202871, 10.8788476 ] ] } },
{ "type": "Feature", "properties": { "element": "way", "id": 875447328, "name": null, "name:en": null, "railway": "subway", "ref": null }, "geometry": { "type": "LineString", "coordinates": [ [ 106.8213866, 10.8764038 ], [ 106.8209399, 10.8773637 ], [ 106.8206297, 10.8780689 ], [ 106.8205367, 10.8782803 ], [ 106.820419, 10.8785479 ], [ 106.8202871, 10.8788476 ], [ 106.8201165, 10.8792354 ], [ 106.8201136, 10.8792419 ] ] } },
{ "type": "Feature", "properties": { "element": "way", "id": 875447331, "name": null, "name:en": null, "railway": "subway", "ref": null }, "geometry": { "type": "LineString", "coordinates": [ [ 106.8212374, 10.8763386 ], [ 106.8207871, 10.8773057 ], [ 106.820604, 10.8779606 ], [ 106.8205367, 10.8782803 ] ] } },
{ "type": "Feature", "properties": { "element": "way", "id": 875447332, "name": null, "name:en": null, "railway": "subway", "ref": null }, "geometry": { "type": "LineString", "coordinates": [ [ 106.8210901, 10.8762741 ], [ 106.8206398, 10.8772412 ], [ 106.8205273, 10.8776831 ], [ 106.8204814, 10.8780558 ], [ 106.8204534, 10.8782574 ], [ 106.820419, 10.8785479 ] ] } },
{ "type": "Feature", "properties": { "element": "way", "id": 875447334, "name": null, "name:en": null, "railway": "subway", "ref": null }, "geometry": { "type": "LineString", "coordinates": [ [ 106.819607, 10.8801895 ], [ 106.8196848, 10.8800209 ], [ 106.8201136, 10.8792419 ] ] } },
{ "type": "Feature", "properties": { "element": "way", "id": 875447335, "name": null, "name:en": null, "railway": "subway", "ref": null }, "geometry": { "type": "LineString", "coordinates": [ [ 106.8194005, 10.8805244 ], [ 106.819607, 10.8801895 ], [ 106.8197221, 10.8800657 ], [ 106.8198886, 10.8798866 ], [ 106.819949, 10.8798282 ], [ 106.8200144, 10.8797754 ], [ 106.8200844, 10.8797285 ], [ 106.8201561, 10.8796893 ], [ 106.820231, 10.8796563 ], [ 106.8203086, 10.8796298 ], [ 106.8203882, 10.8796101 ], [ 106.8204693, 10.8795974 ], [ 106.8206899, 10.8795748 ], [ 106.824069, 10.8792151 ] ] } },
{ "type": "Feature", "properties": { "element": "way", "id": 875447336, "name": null, "name:en": null, "railway": "subway", "ref": null }, "geometry": { "type": "LineString", "coordinates": [ [ 106.8154429, 10.8813063 ], [ 106.8157259, 10.8816751 ] ] } },
{ "type": "Feature", "properties": { "element": "way", "id": 875447337, "name": "Nhánh ra vào Depot Long Bình", "name:en": null, "railway": "subway", "ref": null }, "geometry": { "type": "LineString", "coordinates": [ [ 106.8194005, 10.8805244 ], [ 106.8187931, 10.8814365 ], [ 106.8184992, 10.8818989 ], [ 106.8184142, 10.8820054 ], [ 106.8183361, 10.8820941 ], [ 106.8182511, 10.8821753 ], [ 106.8181593, 10.8822491 ], [ 106.8180728, 10.8823072 ], [ 106.8179776, 10.8823625 ], [ 106.8178771, 10.8824091 ], [ 106.8177701, 10.882453 ], [ 106.81766, 10.8824883 ], [ 106.8175473, 10.8825148 ], [ 106.8174328, 10.8825322 ], [ 106.8173172, 10.8825406 ], [ 106.8172014, 10.8825399 ], [ 106.8170859, 10.88253 ], [ 106.8169717, 10.882511 ], [ 106.8168594, 10.882483 ], [ 106.8167497, 10.8824463 ], [ 106.8166434, 10.882401 ], [ 106.8165412, 10.8823476 ], [ 106.8164584, 10.8822961 ], [ 106.8163793, 10.8822393 ], [ 106.8163044, 10.8821773 ], [ 106.8162342, 10.8821107 ], [ 106.8157965, 10.8816572 ] ] } },
{ "type": "Feature", "properties": { "element": "way", "id": 875447338, "name": "Nhánh ra vào Depot Long Bình", "name:en": null, "railway": "subway", "ref": null }, "geometry": { "type": "LineString", "coordinates": [ [ 106.8158197, 10.8816355 ], [ 106.8162569, 10.8820886 ], [ 106.8163258, 10.8821539 ], [ 106.8163991, 10.8822145 ], [ 106.8164764, 10.8822701 ], [ 106.8165573, 10.8823204 ], [ 106.8166573, 10.8823727 ], [ 106.8167613, 10.882417 ], [ 106.8168685, 10.8824529 ], [ 106.8169783, 10.8824802 ], [ 106.81709, 10.8824988 ], [ 106.8172029, 10.8825084 ], [ 106.8173162, 10.8825092 ], [ 106.8174292, 10.882501 ], [ 106.8175411, 10.8824839 ], [ 106.8176513, 10.882458 ], [ 106.817759, 10.8824235 ], [ 106.8178635, 10.8823806 ], [ 106.8179642, 10.8823296 ], [ 106.8180568, 10.8822764 ], [ 106.818144, 10.8822187 ], [ 106.8182262, 10.8821512 ], [ 106.8183079, 10.8820729 ], [ 106.8183873, 10.8819871 ], [ 106.8184691, 10.8818832 ], [ 106.8187641, 10.8814154 ], [ 106.8193586, 10.8804967 ] ] } },
{ "type": "Feature", "properties": { "element": "way", "id": 1111912663, "name": null, "name:en": null, "railway": "subway", "ref": null }, "geometry": { "type": "LineString", "coordinates": [ [ 106.8211675, 10.8763079 ], [ 106.8207172, 10.877275 ], [ 106.8205273, 10.8776831 ] ] } },
{ "type": "Feature", "properties": { "element": "way", "id": 1111912664, "name": null, "name:en": null, "railway": "subway", "ref": null }, "geometry": { "type": "LineString", "coordinates": [ [ 106.8210167, 10.876242 ], [ 106.8205664, 10.8772091 ], [ 106.8204817, 10.877449 ], [ 106.8203961, 10.8778047 ] ] } },
{ "type": "Feature", "properties": { "element": "way", "id": 1111912665, "name": null, "name:en": null, "railway": "subway", "ref": null }, "geometry": { "type": "LineString", "coordinates": [ [ 106.8209434, 10.8762099 ], [ 106.8204931, 10.877177 ], [ 106.8204202, 10.877433 ], [ 106.8203961, 10.8778047 ], [ 106.8204534, 10.8782574 ] ] } },
{ "type": "Feature", "properties": { "element": "way", "id": 1124628250, "name": null, "name:en": null, "railway": "subway", "ref": null }, "geometry": { "type": "LineString", "coordinates": [ [ 106.8204585, 10.8785757 ], [ 106.820671, 10.8783526 ], [ 106.8210675, 10.8780803 ], [ 106.8213089, 10.8778512 ], [ 106.8214397, 10.8777028 ], [ 106.8214895, 10.8776104 ] ] } },
{ "type": "Feature", "properties": { "element": "way", "id": 1124628251, "name": null, "name:en": null, "railway": "subway", "ref": null }, "geometry": { "type": "LineString", "coordinates": [ [ 106.8201165, 10.8792354 ], [ 106.8202229, 10.8790445 ], [ 106.8203078, 10.8789181 ], [ 106.8203748, 10.8788372 ], [ 106.820472, 10.8787388 ], [ 106.8205697, 10.8786563 ], [ 106.8206767, 10.8785835 ], [ 106.820779, 10.8785111 ], [ 106.8214637, 10.8779857 ], [ 106.8215585, 10.8778952 ], [ 106.821629, 10.8778241 ], [ 106.821686, 10.8777504 ], [ 106.8217454, 10.8776578 ], [ 106.8218893, 10.8773504 ] ] } },
{ "type": "Feature", "properties": { "element": "way", "id": 1183655136, "name": null, "name:en": null, "railway": "subway", "ref": null }, "geometry": { "type": "LineString", "coordinates": [ [ 106.819796, 10.880148 ], [ 106.8198457, 10.8800705 ], [ 106.8199048, 10.8800002 ], [ 106.8199658, 10.8799359 ], [ 106.8200406, 10.8798797 ], [ 106.8201156, 10.8798321 ], [ 106.820198, 10.8797918 ], [ 106.8202876, 10.8797569 ], [ 106.8203707, 10.8797345 ], [ 106.8204566, 10.8797175 ], [ 106.8206425, 10.8796955 ], [ 106.8218182, 10.8795701 ], [ 106.8240865, 10.879328 ] ] } },
{ "type": "Feature", "properties": { "element": "way", "id": 1183673504, "name": null, "name:en": null, "railway": "subway", "ref": null }, "geometry": { "type": "LineString", "coordinates": [ [ 106.8203052, 10.8790453 ], [ 106.8204196, 10.8788994 ], [ 106.8204688, 10.8788462 ], [ 106.8205226, 10.8787976 ], [ 106.8205807, 10.878754 ], [ 106.8206475, 10.8787128 ], [ 106.820718, 10.8786783 ], [ 106.82082, 10.8786421 ], [ 106.8209156, 10.8786109 ], [ 106.8210182, 10.8785913 ], [ 106.8222836, 10.8784498 ] ] } },
{ "type": "Feature", "properties": { "element": "way", "id": 1246247610, "name": "Đường sắt đô thị số 1 Thành phố Hồ Chí Minh (Phân đoạn Bến Thành - Suối Tiên)", "name:en": "HCMC Metro Line 1 (Ben Thanh - Suoi Tien Section)", "railway": "subway", "ref": "L1" }, "geometry": { "type": "LineString", "coordinates": [ [ 106.8158197, 10.8816355 ], [ 106.8154711, 10.8812879 ], [ 106.8152082, 10.8809455 ], [ 106.8147468, 10.8803436 ], [ 106.81417, 10.8795689 ] ] } },
{ "type": "Feature", "properties": { "element": "way", "id": 1246247611, "name": "Đường sắt đô thị số 1 Thành phố Hồ Chí Minh (Phân đoạn Bến Thành - Suối Tiên)", "name:en": "HCMC Metro Line 1 (Ben Thanh - Suoi Tien Section)", "railway": "subway", "ref": "L1" }, "geometry": { "type": "LineString", "coordinates": [ [ 106.8140678, 10.8796111 ], [ 106.8144049, 10.8800828 ], [ 106.8146047, 10.8802856 ], [ 106.8147133, 10.8803725 ], [ 106.8151774, 10.8809626 ], [ 106.8154429, 10.8813063 ], [ 106.8157965, 10.8816572 ] ] } },
{ "type": "Feature", "properties": { "element": "way", "id": 1343957552, "name": "Tuyến metro số 1 Bến Thành - Suối Tiên", "name:en": "Ben Thanh - Suoi Tien (Metro Line No. 1)", "railway": "subway", "ref": null }, "geometry": { "type": "LineString", "coordinates": [ [ 106.7439022, 10.8025033 ], [ 106.7441139, 10.8025077 ] ] } },
{ "type": "Feature", "properties": { "element": "way", "id": 1343957553, "name": "Đường sắt đô thị số 1 Thành phố Hồ Chí Minh (Phân đoạn Bến Thành - Suối Tiên)", "name:en": "HCMC Metro Line 1 (Ben Thanh - Suoi Tien Section)", "railway": "subway", "ref": "L1" }, "geometry": { "type": "LineString", "coordinates": [ [ 106.7459857, 10.8028533 ], [ 106.7441139, 10.8025077 ], [ 106.7438078, 10.8024502 ], [ 106.7437277, 10.8024317 ], [ 106.7436482, 10.8024107 ], [ 106.7435259, 10.8023734 ], [ 106.74319, 10.8022623 ] ] } }
]
}
